STARLINK-32744          
1 62509U 25003Y   26068.00696371  .00035310  00000+0  12858-2 0  9993
2 62509  43.0018 293.1311 0001370 268.9979  91.0716 15.27597765 66449
TEVEL2-7                
1 63238U 25052AE  26068.66113295  .00019244  00000+0  69668-3 0  9998
2 63238  97.4054 324.3041 0008105 124.6830 235.5175 15.28414096 54803
